start=new Date('2021-09-06T00:00:00.000Z').valueOf();
sats=[{"SITE":"AFETR","OBJECT_NAME":"STARLINK-1126","REV_AT_EPOCH":"9335","ELEMENT_SET_NO":"999","SEMIMAJOR_AXIS":"6921.598","CENTER_NAME":"EARTH","INCLINATION":"53.0028","MEAN_MOTION_DDOT":"0.0000000000000","OBJECT_TYPE":"PAYLOAD","PERIAPSIS":"541.566","BSTAR":"0.00028424000000","MEAN_ELEMENT_THEORY":"SGP4","RA_OF_ASC_NODE":"152.9495","MEAN_MOTION":"15.07624690","REF_FRAME":"TEME","LAUNCH_DATE":"2020-01-07","COUNTRY_CODE":"US","APOAPSIS":"545.359","CLASSIFICATION_TYPE":"U","ECCENTRICITY":"0.00027400","FILE":"3109348","ARG_OF_PERICENTER":"55.8986","TIME_SYSTEM":"UTC","MEAN_MOTION_DOT":"0.00004094","OBJECT_ID":"2020-001AP","MEAN_ANOMALY":"304.2262","GP_ID":"184164045","TLE_LINE2":"2 44951  53.0028 152.9495 0002740  55.8986 304.2262 15.07624690 93351","NORAD_CAT_ID":"44951","DECAY_DATE":null,"TLE_LINE1":"1 44951U 20001AP  21248.76458718  .00004094  00000-0  28424-3 0  9999","EPOCH":"2021-09-05T18:21:00.332352","RCS_SIZE":"LARGE","PERIOD":"95.514","EPHEMERIS_TYPE":"0"},{"SITE":"AFETR","SEMIMAJOR_AXIS":"6925.358","ELEMENT_SET_NO":"999","REV_AT_EPOCH":"9204","OBJECT_NAME":"STARLINK-1117","CENTER_NAME":"EARTH","OBJECT_TYPE":"PAYLOAD","MEAN_MOTION_DDOT":"0.0000000000000","INCLINATION":"53.0542","BSTAR":"0.00008003200000","PERIAPSIS":"545.755","MEAN_ELEMENT_THEORY":"SGP4","RA_OF_ASC_NODE":"155.5814","MEAN_MOTION":"15.06396981","LAUNCH_DATE":"2020-01-07","REF_FRAME":"TEME","APOAPSIS":"548.690","COUNTRY_CODE":"US","ARG_OF_PERICENTER":"66.4550","FILE":"3109348","ECCENTRICITY":"0.00021190","CLASSIFICATION_TYPE":"U","MEAN_MOTION_DOT":"0.00000910","TIME_SYSTEM":"UTC","MEAN_ANOMALY":"293.6661","OBJECT_ID":"2020-001AQ","DECAY_DATE":null,"GP_ID":"184164292","TLE_LINE2":"2 44952  53.0542 155.5814 0002119  66.4550 293.6661 15.06396981 92049","NORAD_CAT_ID":"44952","TLE_LINE1":"1 44952U 20001AQ  21248.73954673  .00000910  00000-0  80032-4 0  9995","RCS_SIZE":"LARGE","EPOCH":"2021-09-05T17:44:56.837472","EPHEMERIS_TYPE":"0","PERIOD":"95.592"},{"PERIOD":"95.592","EPHEMERIS_TYPE":"0","RCS_SIZE":"LARGE","EPOCH":"2021-09-05T05:25:48.690336","TLE_LINE1":"1 44953U 20001AR  21248.22625799 -.00000107  00000-0  11751-4 0  9995","GP_ID":"184139106","TLE_LINE2":"2 44953  53.0567 157.9303 0001795  68.3793 291.7387 15.06399926 93255","NORAD_CAT_ID":"44953","DECAY_DATE":null,"OBJECT_ID":"2020-001AR","MEAN_ANOMALY":"291.7387","MEAN_MOTION_DOT":"-0.00000107","TIME_SYSTEM":"UTC","ECCENTRICITY":"0.00017950","CLASSIFICATION_TYPE":"U","ARG_OF_PERICENTER":"68.3793","FILE":"3109252","COUNTRY_CODE":"US","APOAPSIS":"548.457","REF_FRAME":"TEME","LAUNCH_DATE":"2020-01-07","MEAN_MOTION":"15.06399926","RA_OF_ASC_NODE":"157.9303","MEAN_ELEMENT_THEORY":"SGP4","PERIAPSIS":"545.971","BSTAR":"0.00001175100000","INCLINATION":"53.0567","OBJECT_TYPE":"PAYLOAD","MEAN_MOTION_DDOT":"0.0000000000000","CENTER_NAME":"EARTH","REV_AT_EPOCH":"9325","OBJECT_NAME":"STARLINK-1124","ELEMENT_SET_NO":"999","SEMIMAJOR_AXIS":"6925.349","SITE":"AFETR"},{"COUNTRY_CODE":"US","APOAPSIS":"548.501","CLASSIFICATION_TYPE":"U","ECCENTRICITY":"0.00018570","FILE":"3109348","ARG_OF_PERICENTER":"68.5560","TIME_SYSTEM":"UTC","MEAN_MOTION_DOT":"-0.00000547","OBJECT_ID":"2020-001AS","MEAN_ANOMALY":"291.5627","TLE_LINE2":"2 44954  53.0549 135.7420 0001857  68.5560 291.5627 15.06399436 92264","NORAD_CAT_ID":"44954","GP_ID":"184163794","DECAY_DATE":null,"TLE_LINE1":"1 44954U 20001AS  21248.70452872 -.00000547  00000-0 -17820-4 0  9991","EPOCH":"2021-09-05T16:54:31.281408","RCS_SIZE":"LARGE","PERIOD":"95.592","EPHEMERIS_TYPE":"0","SITE":"AFETR","OBJECT_NAME":"STARLINK-1066","REV_AT_EPOCH":"9226","SEMIMAJOR_AXIS":"6925.350","ELEMENT_SET_NO":"999","CENTER_NAME":"EARTH","INCLINATION":"53.0549","MEAN_MOTION_DDOT":"0.0000000000000","OBJECT_TYPE":"PAYLOAD","PERIAPSIS":"545.929","BSTAR":"-0.00001782000000","MEAN_ELEMENT_THEORY":"SGP4","MEAN_MOTION":"15.06399436","RA_OF_ASC_NODE":"135.7420","REF_FRAME":"TEME","LAUNCH_DATE":"2020-01-07"},{"MEAN_ELEMENT_THEORY":"SGP4","PERIAPSIS":"545.855","BSTAR":"-0.00002076900000","REF_FRAME":"TEME","LAUNCH_DATE":"2020-01-07","MEAN_MOTION":"15.06406573","RA_OF_ASC_NODE":"138.0935","OBJECT_NAME":"STARLINK-1069","REV_AT_EPOCH":"9218","ELEMENT_SET_NO":"999","SEMIMAJOR_AXIS":"6925.328","SITE":"AFETR","INCLINATION":"53.0548","MEAN_MOTION_DDOT":"0.0000000000000","OBJECT_TYPE":"PAYLOAD","CENTER_NAME":"EARTH","TLE_LINE1":"1 44955U 20001AT  21248.18112197 -.00000591  00000-0 -20769-4 0  9992","TLE_LINE2":"2 44955  53.0548 138.0935 0001933  61.7583 298.3601 15.06406573 92185","GP_ID":"184138105","NORAD_CAT_ID":"44955","DECAY_DATE":null,"PERIOD":"95.592","EPHEMERIS_TYPE":"0","EPOCH":"2021-09-05T04:20:48.938208","RCS_SIZE":"LARGE","CLASSIFICATION_TYPE":"U","ECCENTRICITY":"0.00019330","FILE":"3109252","ARG_OF_PERICENTER":"61.7583","COUNTRY_CODE":"US","APOAPSIS":"548.532","OBJECT_ID":"2020-001AT","MEAN_ANOMALY":"298.3601","TIME_SYSTEM":"UTC","MEAN_MOTION_DOT":"-0.00000591"},{"GP_ID":"184164793","TLE_LINE2":"2 44956  53.0565 135.7283 0001472  79.2172 280.8983 15.06406509 92325","NORAD_CAT_ID":"44956","DECAY_DATE":null,"TLE_LINE1":"1 44956U 20001AU  21248.70820364  .00000484  00000-0  51350-4 0  9992","RCS_SIZE":"LARGE","EPOCH":"2021-09-05T16:59:48.794496","PERIOD":"95.592","EPHEMERIS_TYPE":"0","COUNTRY_CODE":"US","APOAPSIS":"548.213","ECCENTRICITY":"0.00014720","CLASSIFICATION_TYPE":"U","ARG_OF_PERICENTER":"79.2172","FILE":"3109348","MEAN_MOTION_DOT":"0.00000484","TIME_SYSTEM":"UTC","OBJECT_ID":"2020-001AU","MEAN_ANOMALY":"280.8983","PERIAPSIS":"546.174","BSTAR":"0.00005135000000","MEAN_ELEMENT_THEORY":"SGP4","RA_OF_ASC_NODE":"135.7283","MEAN_MOTION":"15.06406509","REF_FRAME":"TEME","LAUNCH_DATE":"2020-01-07","SITE":"AFETR","REV_AT_EPOCH":"9232","OBJECT_NAME":"STARLINK-1070","SEMIMAJOR_AXIS":"6925.329","ELEMENT_SET_NO":"999","CENTER_NAME":"EARTH","INCLINATION":"53.0565","OBJECT_TYPE":"PAYLOAD","MEAN_MOTION_DDOT":"0.0000000000000"},{"MEAN_MOTION":"15.06399882","RA_OF_ASC_NODE":"135.9086","REF_FRAME":"TEME","LAUNCH_DATE":"2020-01-07","PERIAPSIS":"545.733","BSTAR":"-0.00000481900000","MEAN_ELEMENT_THEORY":"SGP4","CENTER_NAME":"EARTH","INCLINATION":"53.0544","OBJECT_TYPE":"PAYLOAD","MEAN_MOTION_DDOT":"0.0000000000000","SITE":"AFETR","REV_AT_EPOCH":"9231","OBJECT_NAME":"STARLINK-1074","ELEMENT_SET_NO":"999","SEMIMAJOR_AXIS":"6925.349","RCS_SIZE":"LARGE","EPOCH":"2021-09-05T16:01:26.718240","PERIOD":"95.592","EPHEMERIS_TYPE":"0","TLE_LINE2":"2 44957  53.0544 135.9086 0002139  61.1852 298.9351 15.06399882 92315","NORAD_CAT_ID":"44957","GP_ID":"184163044","DECAY_DATE":null,"TLE_LINE1":"1 44957U 20001AV  21248.66767035 -.00000354  00000-0 -48190-5 0  9990","MEAN_MOTION_DOT":"-0.00000354","TIME_SYSTEM":"UTC","OBJECT_ID":"2020-001AV","MEAN_ANOMALY":"298.9351","COUNTRY_CODE":"US","APOAPSIS":"548.695","ECCENTRICITY":"0.00021390","CLASSIFICATION_TYPE":"U","ARG_OF_PERICENTER":"61.1852","FILE":"3109348"},{"REF_FRAME":"TEME","LAUNCH_DATE":"2020-01-07","RA_OF_ASC_NODE":"135.8398","MEAN_MOTION":"15.06393361","MEAN_ELEMENT_THEORY":"SGP4","PERIAPSIS":"545.827","BSTAR":"-0.00001430200000","INCLINATION":"53.0546","MEAN_MOTION_DDOT":"0.0000000000000","OBJECT_TYPE":"PAYLOAD","CENTER_NAME":"EARTH","OBJECT_NAME":"STARLINK-1076","REV_AT_EPOCH":"9231","SEMIMAJOR_AXIS":"6925.369","ELEMENT_SET_NO":"999","SITE":"AFETR","PERIOD":"95.593","EPHEMERIS_TYPE":"0","EPOCH":"2021-09-05T16:22:40.499616","RCS_SIZE":"LARGE","TLE_LINE1":"1 44959U 20001AX  21248.68241319 -.00000495  00000-0 -14302-4 0  9999","NORAD_CAT_ID":"44959","TLE_LINE2":"2 44959  53.0546 135.8398 0002031  65.6575 294.4625 15.06393361 92317","GP_ID":"184163294","DECAY_DATE":null,"OBJECT_ID":"2020-001AX","MEAN_ANOMALY":"294.4625","TIME_SYSTEM":"UTC","MEAN_MOTION_DOT":"-0.00000495","CLASSIFICATION_TYPE":"U","ECCENTRICITY":"0.00020310","FILE":"3109348","ARG_OF_PERICENTER":"65.6575","COUNTRY_CODE":"US","APOAPSIS":"548.640"},{"REF_FRAME":"TEME","LAUNCH_DATE":"2020-01-07","MEAN_MOTION":"15.06406937","RA_OF_ASC_NODE":"136.9948","MEAN_ELEMENT_THEORY":"SGP4","PERIAPSIS":"546.102","BSTAR":"0.00012321000000","INCLINATION":"53.0544","MEAN_MOTION_DDOT":"0.0000000000000","OBJECT_TYPE":"PAYLOAD","CENTER_NAME":"EARTH","OBJECT_NAME":"STARLINK-1080","REV_AT_EPOCH":"9228","ELEMENT_SET_NO":"999","SEMIMAJOR_AXIS":"6925.327","SITE":"AFETR","PERIOD":"95.592","EPHEMERIS_TYPE":"0","EPOCH":"2021-09-05T10:11:06.991008","RCS_SIZE":"LARGE","TLE_LINE1":"1 44961U 20001AZ  21248.42438647  .00001554  00000-0  12321-3 0  9999","TLE_LINE2":"2 44961  53.0544 136.9948 0001575  65.0987 295.0166 15.06406937 92281","NORAD_CAT_ID":"44961","GP_ID":"184137605","DECAY_DATE":null,"OBJECT_ID":"2020-001AZ","MEAN_ANOMALY":"295.0166","TIME_SYSTEM":"UTC","MEAN_MOTION_DOT":"0.00001554","CLASSIFICATION_TYPE":"U","ECCENTRICITY":"0.00015750","FILE":"3109252","ARG_OF_PERICENTER":"65.0987","COUNTRY_CODE":"US","APOAPSIS":"548.283"},{"TLE_LINE1":"1 44962U 20001BA  21248.68843529  .00067201  12706-4  24026-3 0  9993","NORAD_CAT_ID":"44962","TLE_LINE2":"2 44962  53.0546  90.6299 0009533 300.7035  59.3050 15.89080025 92947","GP_ID":"184164293","DECAY_DATE":null,"PERIOD":"90.618","EPHEMERIS_TYPE":"0","RCS_SIZE":"LARGE","EPOCH":"2021-09-05T16:31:20.809056","ECCENTRICITY":"0.00095330","CLASSIFICATION_TYPE":"U","ARG_OF_PERICENTER":"300.7035","FILE":"3109348","COUNTRY_CODE":"US","APOAPSIS":"311.234","OBJECT_ID":"2020-001BA","MEAN_ANOMALY":"59.3050","MEAN_MOTION_DOT":"0.00067201","TIME_SYSTEM":"UTC","MEAN_ELEMENT_THEORY":"SGP4","PERIAPSIS":"298.492","BSTAR":"0.00024026000000","REF_FRAME":"TEME","LAUNCH_DATE":"2020-01-07","RA_OF_ASC_NODE":"90.6299","MEAN_MOTION":"15.89080025","REV_AT_EPOCH":"9294","OBJECT_NAME":"STARLINK-1081","ELEMENT_SET_NO":"999","SEMIMAJOR_AXIS":"6682.998","SITE":"AFETR","INCLINATION":"53.0546","OBJECT_TYPE":"PAYLOAD","MEAN_MOTION_DDOT":"0.0000127060000","CENTER_NAME":"EARTH"}];
